start=new Date('2023-02-15T00:00:00.000Z').valueOf();
sats=[{"ARG_OF_PERICENTER":"84.1896","ELEMENT_SET_NO":"999","ECCENTRICITY":"0.00010350","FILE":"3792084","BSTAR":"0.00066009000000","SITE":"AFWTR","RA_OF_ASC_NODE":"231.8922","LAUNCH_DATE":"2021-12-18","GP_ID":"225434421","RCS_SIZE":"LARGE","MEAN_MOTION":"15.08849605","OBJECT_ID":"2021-125W","MEAN_MOTION_DOT":"0.00010236","NORAD_CAT_ID":"50176","EPOCH":"2023-02-14T19:50:49.148736","REV_AT_EPOCH":"6773","TLE_LINE2":"2 50176  53.2137 231.8922 0001035  84.1896 275.9214 15.08849605 67733","MEAN_ANOMALY":"275.9214","APOAPSIS":"540.432","SEMIMAJOR_AXIS":"6917.851","EPHEMERIS_TYPE":"0","INCLINATION":"53.2137","PERIAPSIS":"539.000","COUNTRY_CODE":"US","TIME_SYSTEM":"UTC","DECAY_DATE":null,"MEAN_ELEMENT_THEORY":"SGP4","PERIOD":"95.437","MEAN_MOTION_DDOT":"0.0000000000000","OBJECT_TYPE":"PAYLOAD","CLASSIFICATION_TYPE":"U","TLE_LINE1":"1 50176U 21125W   23045.82695774  .00010236  00000-0  66009-3 0  9998","CENTER_NAME":"EARTH","OBJECT_NAME":"STARLINK-3293","REF_FRAME":"TEME"},{"RA_OF_ASC_NODE":"232.1404","SITE":"AFWTR","LAUNCH_DATE":"2021-12-18","GP_ID":"225434162","RCS_SIZE":"LARGE","MEAN_MOTION":"15.08842369","ARG_OF_PERICENTER":"88.9835","ELEMENT_SET_NO":"999","ECCENTRICITY":"0.00012640","FILE":"3792084","BSTAR":"0.00014578000000","REV_AT_EPOCH":"6768","TLE_LINE2":"2 50177  53.2120 232.1404 0001264  88.9835 271.1301 15.08842369 67683","MEAN_ANOMALY":"271.1301","APOAPSIS":"540.613","SEMIMAJOR_AXIS":"6917.873","OBJECT_ID":"2021-125X","MEAN_MOTION_DOT":"0.00002033","EPOCH":"2023-02-14T18:31:19.970688","NORAD_CAT_ID":"50177","PERIAPSIS":"538.864","COUNTRY_CODE":"US","TIME_SYSTEM":"UTC","EPHEMERIS_TYPE":"0","INCLINATION":"53.2120","CLASSIFICATION_TYPE":"U","TLE_LINE1":"1 50177U 21125X   23045.77175892  .00002033  00000-0  14578-3 0  9997","OBJECT_NAME":"STARLINK-3282","CENTER_NAME":"EARTH","REF_FRAME":"TEME","DECAY_DATE":null,"MEAN_ELEMENT_THEORY":"SGP4","PERIOD":"95.437","OBJECT_TYPE":"PAYLOAD","MEAN_MOTION_DDOT":"0.0000000000000"},{"COUNTRY_CODE":"US","PERIAPSIS":"538.881","TIME_SYSTEM":"UTC","EPHEMERIS_TYPE":"0","INCLINATION":"53.2153","TLE_LINE1":"1 50178U 21125Y   23045.79751640  .00002281  00000-0  16133-3 0  9995","CLASSIFICATION_TYPE":"U","REF_FRAME":"TEME","CENTER_NAME":"EARTH","OBJECT_NAME":"STARLINK-3284","DECAY_DATE":null,"MEAN_ELEMENT_THEORY":"SGP4","PERIOD":"95.437","OBJECT_TYPE":"PAYLOAD","MEAN_MOTION_DDOT":"0.0000000000000","RA_OF_ASC_NODE":"232.0170","SITE":"AFWTR","LAUNCH_DATE":"2021-12-18","MEAN_MOTION":"15.08845425","RCS_SIZE":"LARGE","GP_ID":"225432920","ELEMENT_SET_NO":"999","ARG_OF_PERICENTER":"84.3935","ECCENTRICITY":"0.00012260","FILE":"3792084","BSTAR":"0.00016133000000","TLE_LINE2":"2 50178  53.2153 232.0170 0001226  84.3935 275.7197 15.08845425 67722","REV_AT_EPOCH":"6772","APOAPSIS":"540.577","MEAN_ANOMALY":"275.7197","SEMIMAJOR_AXIS":"6917.864","OBJECT_ID":"2021-125Y","MEAN_MOTION_DOT":"0.00002281","NORAD_CAT_ID":"50178","EPOCH":"2023-02-14T19:08:25.416960"},{"TLE_LINE2":"2 50179  53.2124 231.8778 0001130  84.0008 276.1113 15.08846559 67692","REV_AT_EPOCH":"6769","SEMIMAJOR_AXIS":"6917.860","MEAN_ANOMALY":"276.1113","APOAPSIS":"540.507","MEAN_MOTION_DOT":"0.00006495","OBJECT_ID":"2021-125Z","NORAD_CAT_ID":"50179","EPOCH":"2023-02-14T19:56:07.045440","SITE":"AFWTR","RA_OF_ASC_NODE":"231.8778","RCS_SIZE":"LARGE","GP_ID":"225433170","MEAN_MOTION":"15.08846559","LAUNCH_DATE":"2021-12-18","ECCENTRICITY":"0.00011300","ARG_OF_PERICENTER":"84.0008","ELEMENT_SET_NO":"999","BSTAR":"0.00042573000000","FILE":"3792084","CLASSIFICATION_TYPE":"U","TLE_LINE1":"1 50179U 21125Z   23045.83063710  .00006495  00000-0  42573-3 0  9993","CENTER_NAME":"EARTH","OBJECT_NAME":"STARLINK-3283","REF_FRAME":"TEME","MEAN_ELEMENT_THEORY":"SGP4","DECAY_DATE":null,"MEAN_MOTION_DDOT":"0.0000000000000","OBJECT_TYPE":"PAYLOAD","PERIOD":"95.437","TIME_SYSTEM":"UTC","PERIAPSIS":"538.944","COUNTRY_CODE":"US","EPHEMERIS_TYPE":"0","INCLINATION":"53.2124"},{"ECCENTRICITY":"0.00010280","ARG_OF_PERICENTER":"88.3545","ELEMENT_SET_NO":"999","BSTAR":"0.00051308000000","FILE":"3792084","SITE":"AFWTR","RA_OF_ASC_NODE":"231.9416","RCS_SIZE":"LARGE","GP_ID":"225433922","MEAN_MOTION":"15.08847548","LAUNCH_DATE":"2021-12-18","MEAN_MOTION_DOT":"0.00007889","OBJECT_ID":"2021-125AA","NORAD_CAT_ID":"50180","EPOCH":"2023-02-14T19:34:55.065504","REV_AT_EPOCH":"6773","TLE_LINE2":"2 50180  53.2134 231.9416 0001028  88.3545 271.7565 15.08847548 67730","SEMIMAJOR_AXIS":"6917.857","MEAN_ANOMALY":"271.7565","APOAPSIS":"540.433","EPHEMERIS_TYPE":"0","INCLINATION":"53.2134","TIME_SYSTEM":"UTC","PERIAPSIS":"539.011","COUNTRY_CODE":"US","MEAN_ELEMENT_THEORY":"SGP4","DECAY_DATE":null,"MEAN_MOTION_DDOT":"0.0000000000000","OBJECT_TYPE":"PAYLOAD","PERIOD":"95.437","CLASSIFICATION_TYPE":"U","TLE_LINE1":"1 50180U 21125AA  23045.81591511  .00007889  00000-0  51308-3 0  9992","OBJECT_NAME":"STARLINK-3265","CENTER_NAME":"EARTH","REF_FRAME":"TEME"},{"MEAN_ANOMALY":"264.7532","APOAPSIS":"542.231","SEMIMAJOR_AXIS":"6919.445","TLE_LINE2":"2 50181  53.2141 231.9797 0001331  95.3612 264.7532 15.08328165 67691","REV_AT_EPOCH":"6769","EPOCH":"2023-02-14T19:25:14.047968","NORAD_CAT_ID":"50181","OBJECT_ID":"2021-125AB","MEAN_MOTION_DOT":"-0.00055812","LAUNCH_DATE":"2021-12-18","GP_ID":"225434662","RCS_SIZE":"LARGE","MEAN_MOTION":"15.08328165","SITE":"AFWTR","RA_OF_ASC_NODE":"231.9797","FILE":"3792084","BSTAR":"-0.00356570000000","ARG_OF_PERICENTER":"95.3612","ELEMENT_SET_NO":"999","ECCENTRICITY":"0.00013310","REF_FRAME":"TEME","OBJECT_NAME":"STARLINK-3285","CENTER_NAME":"EARTH","CLASSIFICATION_TYPE":"U","TLE_LINE1":"1 50181U 21125AB  23045.80919037 -.00055812  00000-0 -35657-2 0  9998","PERIOD":"95.470","OBJECT_TYPE":"PAYLOAD","MEAN_MOTION_DDOT":"0.0000000000000","DECAY_DATE":null,"MEAN_ELEMENT_THEORY":"SGP4","PERIAPSIS":"540.389","COUNTRY_CODE":"US","TIME_SYSTEM":"UTC","INCLINATION":"53.2141","EPHEMERIS_TYPE":"0"},{"INCLINATION":"53.2144","EPHEMERIS_TYPE":"0","COUNTRY_CODE":"US","PERIAPSIS":"539.055","TIME_SYSTEM":"UTC","PERIOD":"95.438","OBJECT_TYPE":"PAYLOAD","MEAN_MOTION_DDOT":"0.0000000000000","DECAY_DATE":null,"MEAN_ELEMENT_THEORY":"SGP4","OBJECT_NAME":"STARLINK-3277","REF_FRAME":"TEME","CENTER_NAME":"EARTH","TLE_LINE1":"1 50182U 21125AC  23045.80119634  .00001335  00000-0  10195-3 0  9994","CLASSIFICATION_TYPE":"U","FILE":"3792084","BSTAR":"0.00010195000000","ELEMENT_SET_NO":"999","ARG_OF_PERICENTER":"89.7382","ECCENTRICITY":"0.00009940","LAUNCH_DATE":"2021-12-18","MEAN_MOTION":"15.08840841","GP_ID":"225433420","RCS_SIZE":"LARGE","SITE":"AFWTR","RA_OF_ASC_NODE":"232.0066","EPOCH":"2023-02-14T19:13:43.363776","NORAD_CAT_ID":"50182","OBJECT_ID":"2021-125AC","MEAN_MOTION_DOT":"0.00001335","APOAPSIS":"540.430","MEAN_ANOMALY":"270.3724","SEMIMAJOR_AXIS":"6917.878","REV_AT_EPOCH":"6772","TLE_LINE2":"2 50182  53.2144 232.0066 0000994  89.7382 270.3724 15.08840841 67721"},{"SITE":"AFWTR","RA_OF_ASC_NODE":"231.9922","LAUNCH_DATE":"2021-12-18","GP_ID":"225433670","RCS_SIZE":"LARGE","MEAN_MOTION":"15.08851639","ARG_OF_PERICENTER":"87.6696","ELEMENT_SET_NO":"999","ECCENTRICITY":"0.00011590","FILE":"3792084","BSTAR":"0.00029391000000","REV_AT_EPOCH":"6773","TLE_LINE2":"2 50183  53.2139 231.9922 0001159  87.6696 272.4429 15.08851639 67737","MEAN_ANOMALY":"272.4429","APOAPSIS":"540.512","SEMIMAJOR_AXIS":"6917.845","MEAN_MOTION_DOT":"0.00004394","OBJECT_ID":"2021-125AD","EPOCH":"2023-02-14T19:19:01.123968","NORAD_CAT_ID":"50183","PERIAPSIS":"538.908","COUNTRY_CODE":"US","TIME_SYSTEM":"UTC","EPHEMERIS_TYPE":"0","INCLINATION":"53.2139","CLASSIFICATION_TYPE":"U","TLE_LINE1":"1 50183U 21125AD  23045.80487412  .00004394  00000-0  29391-3 0  9993","CENTER_NAME":"EARTH","OBJECT_NAME":"STARLINK-3281","REF_FRAME":"TEME","DECAY_DATE":null,"MEAN_ELEMENT_THEORY":"SGP4","PERIOD":"95.437","MEAN_MOTION_DDOT":"0.0000000000000","OBJECT_TYPE":"PAYLOAD"},{"MEAN_ANOMALY":"272.9199","APOAPSIS":"540.416","SEMIMAJOR_AXIS":"6917.818","TLE_LINE2":"2 50185  53.2129 231.9582 0001060  87.1915 272.9199 15.08860553 67699","REV_AT_EPOCH":"6769","NORAD_CAT_ID":"50185","EPOCH":"2023-02-14T19:29:36.801600","OBJECT_ID":"2021-125AF","MEAN_MOTION_DOT":"-0.00003129","LAUNCH_DATE":"2021-12-18","GP_ID":"225434422","RCS_SIZE":"LARGE","MEAN_MOTION":"15.08860553","RA_OF_ASC_NODE":"231.9582","SITE":"AFWTR","FILE":"3792084","BSTAR":"-0.00017852000000","ARG_OF_PERICENTER":"87.1915","ELEMENT_SET_NO":"999","ECCENTRICITY":"0.00010600","OBJECT_NAME":"STARLINK-3279","CENTER_NAME":"EARTH","REF_FRAME":"TEME","CLASSIFICATION_TYPE":"U","TLE_LINE1":"1 50185U 21125AF  23045.81223150 -.00003129  00000-0 -17852-3 0  9999","PERIOD":"95.436","MEAN_MOTION_DDOT":"0.0000000000000","OBJECT_TYPE":"PAYLOAD","DECAY_DATE":null,"MEAN_ELEMENT_THEORY":"SGP4","PERIAPSIS":"538.949","COUNTRY_CODE":"US","TIME_SYSTEM":"UTC","INCLINATION":"53.2129","EPHEMERIS_TYPE":"0"},{"OBJECT_NAME":"STARLINK-3274","CENTER_NAME":"EARTH","REF_FRAME":"TEME","CLASSIFICATION_TYPE":"U","TLE_LINE1":"1 50186U 21125AG  23045.82603729  .00003810  00000-0  25726-3 0  9999","MEAN_MOTION_DDOT":"0.0000000000000","OBJECT_TYPE":"PAYLOAD","PERIOD":"95.437","MEAN_ELEMENT_THEORY":"SGP4","DECAY_DATE":null,"TIME_SYSTEM":"UTC","PERIAPSIS":"538.919","COUNTRY_CODE":"US","INCLINATION":"53.2128","EPHEMERIS_TYPE":"0","SEMIMAJOR_AXIS":"6917.852","MEAN_ANOMALY":"268.7713","APOAPSIS":"540.515","TLE_LINE2":"2 50186  53.2128 241.8979 0001153  91.3411 268.7713 15.08849263 67544","REV_AT_EPOCH":"6754","EPOCH":"2023-02-14T19:49:29.621856","NORAD_CAT_ID":"50186","OBJECT_ID":"2021-125AG","MEAN_MOTION_DOT":"0.00003810","RCS_SIZE":"LARGE","GP_ID":"225434163","MEAN_MOTION":"15.08849263","LAUNCH_DATE":"2021-12-18","RA_OF_ASC_NODE":"241.8979","SITE":"AFWTR","BSTAR":"0.00025726000000","FILE":"3792084","ECCENTRICITY":"0.00011530","ARG_OF_PERICENTER":"91.3411","ELEMENT_SET_NO":"999"}];
